IRIDIUM 159             
1 43578U 18061K   25133.78146478  .00000169  00000+0  53334-4 0  9999
2 43578  86.4006 223.5632 0002168  90.2671 269.8773 14.34217639356138
IRIDIUM 180             
1 43922U 19002A   25133.64142174  .00000124  00000+0  37095-4 0  9999
2 43922  86.3986 160.6091 0002153  93.4893 266.6549 14.34217918331726
IRIDIUM 176             
1 43923U 19002B   25133.64480087  .00000895  00000+0  13806-3 0  9996
2 43923  86.6111 160.6042 0001891 110.8207 249.3212 14.72248585340469
IRIDIUM 168             
1 43924U 19002C   25133.56531049  .00000189  00000+0  60298-4 0  9997
2 43924  86.3988 160.7066 0002309  92.3077 267.8384 14.34217094331699
IRIDIUM 173             
1 43925U 19002D   25133.69216235  .00000263  00000+0  86893-4 0  9991
2 43925  86.3984 160.5588 0002198  95.1988 264.9458 14.34216709331693
IRIDIUM 169             
1 43926U 19002E   25133.65433744  .00000347  00000+0  10683-3 0  9990
2 43926  86.4276 192.1451 0002624 128.4186 231.7248 14.38611095332784
IRIDIUM 172             
1 43927U 19002F   25133.54628169  .00000211  00000+0  68260-4 0  9991
2 43927  86.3986 160.6268 0002041  87.5772 272.5658 14.34218978331682
IRIDIUM 175             
1 43928U 19002G   25133.91157838  .00000499  00000+0  75148-4 0  9994
2 43928  86.1474 114.9604 0003288  99.3446 260.8142 14.72252826340491
